[{"OBJECT_NAME":"JCSAT-13","OBJECT_ID":"2012-023A","EPOCH":"2026-03-04T00:56:02.730336","MEAN_MOTION":1.00272694,"ECCENTRICITY":0.0002155,"INCLINATION":0.0376,"RA_OF_ASC_NODE":269.7147,"ARG_OF_PERICENTER":116.0153,"MEAN_ANOMALY":274.0708,"EPHEMERIS_TYPE":0,"CLASSIFICATION_TYPE":"U","NORAD_CAT_ID":38331,"ELEMENT_SET_NO":999,"REV_AT_EPOCH":5048,"BSTAR":0,"MEAN_MOTION_DOT":-3.69e-6,"MEAN_MOTION_DDOT":0},{"OBJECT_NAME":"VINASAT-2","OBJECT_ID":"2012-023B","EPOCH":"2026-03-04T00:57:47.561184","MEAN_MOTION":1.00270786,"ECCENTRICITY":0.0002924,"INCLINATION":0.0525,"RA_OF_ASC_NODE":299.6788,"ARG_OF_PERICENTER":61.2086,"MEAN_ANOMALY":307.1774,"EPHEMERIS_TYPE":0,"CLASSIFICATION_TYPE":"U","NORAD_CAT_ID":38332,"ELEMENT_SET_NO":999,"REV_AT_EPOCH":4560,"BSTAR":0,"MEAN_MOTION_DOT":-3.42e-6,"MEAN_MOTION_DDOT":0},{"OBJECT_NAME":"NIMIQ 6","OBJECT_ID":"2012-026A","EPOCH":"2026-03-04T04:27:38.801664","MEAN_MOTION":1.00270974,"ECCENTRICITY":0.0002627,"INCLINATION":0.0559,"RA_OF_ASC_NODE":279.8394,"ARG_OF_PERICENTER":59.1089,"MEAN_ANOMALY":158.7873,"EPHEMERIS_TYPE":0,"CLASSIFICATION_TYPE":"U","NORAD_CAT_ID":38342,"ELEMENT_SET_NO":999,"REV_AT_EPOCH":4936,"BSTAR":0,"MEAN_MOTION_DOT":-1.86e-6,"MEAN_MOTION_DDOT":0},{"OBJECT_NAME":"ZHONGXING-2A","OBJECT_ID":"2012-028A","EPOCH":"2026-03-04T00:48:40.935168","MEAN_MOTION":1.00272834,"ECCENTRICITY":0.0001256,"INCLINATION":1.1825,"RA_OF_ASC_NODE":85.3663,"ARG_OF_PERICENTER":229.8926,"MEAN_ANOMALY":316.9471,"EPHEMERIS_TYPE":0,"CLASSIFICATION_TYPE":"U","NORAD_CAT_ID":38352,"ELEMENT_SET_NO":999,"REV_AT_EPOCH":5024,"BSTAR":0,"MEAN_MOTION_DOT":-3.05e-6,"MEAN_MOTION_DDOT":0},{"OBJECT_NAME":"INTELSAT 19 (IS-19)","OBJECT_ID":"2012-030A","EPOCH":"2026-03-04T02:50:29.258016","MEAN_MOTION":1.00270085,"ECCENTRICITY":0.000314,"INCLINATION":0.0252,"RA_OF_ASC_NODE":149.9211,"ARG_OF_PERICENTER":210.3532,"MEAN_ANOMALY":10.2383,"EPHEMERIS_TYPE":0,"CLASSIFICATION_TYPE":"U","NORAD_CAT_ID":38356,"ELEMENT_SET_NO":999,"REV_AT_EPOCH":4939,"BSTAR":0,"MEAN_MOTION_DOT":0,"MEAN_MOTION_DDOT":0},{"OBJECT_NAME":"ECHOSTAR 17","OBJECT_ID":"2012-035A","EPOCH":"2026-03-04T03:15:34.351200","MEAN_MOTION":1.00272005,"ECCENTRICITY":0.0002033,"INCLINATION":0.019,"RA_OF_ASC_NODE":132.6817,"ARG_OF_PERICENTER":211.4045,"MEAN_ANOMALY":119.5824,"EPHEMERIS_TYPE":0,"CLASSIFICATION_TYPE":"U","NORAD_CAT_ID":38551,"ELEMENT_SET_NO":999,"REV_AT_EPOCH":5001,"BSTAR":0,"MEAN_MOTION_DOT":-8.8e-7,"MEAN_MOTION_DDOT":0},{"OBJECT_NAME":"METEOSAT-10 (MSG-3)","OBJECT_ID":"2012-035B","EPOCH":"2026-03-04T03:46:08.921280","MEAN_MOTION":1.00277354,"ECCENTRICITY":0.00025,"INCLINATION":4.4231,"RA_OF_ASC_NODE":61.4646,"ARG_OF_PERICENTER":294.6092,"MEAN_ANOMALY":222.6503,"EPHEMERIS_TYPE":0,"CLASSIFICATION_TYPE":"U","NORAD_CAT_ID":38552,"ELEMENT_SET_NO":999,"REV_AT_EPOCH":4980,"BSTAR":0,"MEAN_MOTION_DOT":-1.4e-7,"MEAN_MOTION_DDOT":0},{"OBJECT_NAME":"SES-5","OBJECT_ID":"2012-036A","EPOCH":"2026-03-04T03:47:31.288128","MEAN_MOTION":1.00271928,"ECCENTRICITY":0.0002021,"INCLINATION":0.0603,"RA_OF_ASC_NODE":310.79,"ARG_OF_PERICENTER":27.8584,"MEAN_ANOMALY":245.1093,"EPHEMERIS_TYPE":0,"CLASSIFICATION_TYPE":"U","NORAD_CAT_ID":38652,"ELEMENT_SET_NO":999,"REV_AT_EPOCH":4340,"BSTAR":0,"MEAN_MOTION_DOT":2.1e-7,"MEAN_MOTION_DDOT":0},{"OBJECT_NAME":"INTELSAT 20 (IS-20)","OBJECT_ID":"2012-043A","EPOCH":"2026-03-04T02:22:54.401664","MEAN_MOTION":1.00270989,"ECCENTRICITY":0.000253,"INCLINATION":0.0202,"RA_OF_ASC_NODE":133.9927,"ARG_OF_PERICENTER":32.1653,"MEAN_ANOMALY":99.9085,"EPHEMERIS_TYPE":0,"CLASSIFICATION_TYPE":"U","NORAD_CAT_ID":38740,"ELEMENT_SET_NO":999,"REV_AT_EPOCH":4969,"BSTAR":0,"MEAN_MOTION_DOT":-3.7e-7,"MEAN_MOTION_DDOT":0},{"OBJECT_NAME":"HYLAS 2","OBJECT_ID":"2012-043B","EPOCH":"2026-03-04T03:44:38.901120","MEAN_MOTION":1.00270653,"ECCENTRICITY":0.0002665,"INCLINATION":2.1563,"RA_OF_ASC_NODE":82.3894,"ARG_OF_PERICENTER":281.1655,"MEAN_ANOMALY":141.9392,"EPHEMERIS_TYPE":0,"CLASSIFICATION_TYPE":"U","NORAD_CAT_ID":38741,"ELEMENT_SET_NO":999,"REV_AT_EPOCH":4972,"BSTAR":0,"MEAN_MOTION_DOT":-2.69e-6,"MEAN_MOTION_DDOT":0},{"OBJECT_NAME":"INTELSAT 21 (IS-21)","OBJECT_ID":"2012-045A","EPOCH":"2026-03-04T03:36:38.719296","MEAN_MOTION":1.0027081,"ECCENTRICITY":0.000178,"INCLINATION":0.0358,"RA_OF_ASC_NODE":264.1524,"ARG_OF_PERICENTER":84.9537,"MEAN_ANOMALY":168.9512,"EPHEMERIS_TYPE":0,"CLASSIFICATION_TYPE":"U","NORAD_CAT_ID":38749,"ELEMENT_SET_NO":999,"REV_AT_EPOCH":4947,"BSTAR":0,"MEAN_MOTION_DOT":-2.97e-6,"MEAN_MOTION_DDOT":0},{"OBJECT_NAME":"ASTRA 2F","OBJECT_ID":"2012-051A","EPOCH":"2026-03-03T19:20:37.987008","MEAN_MOTION":1.00273947,"ECCENTRICITY":0.00025768,"INCLINATION":0.0742,"RA_OF_ASC_NODE":258.5205,"ARG_OF_PERICENTER":16.5698,"MEAN_ANOMALY":204.8076,"EPHEMERIS_TYPE":0,"CLASSIFICATION_TYPE":"U","NORAD_CAT_ID":38778,"ELEMENT_SET_NO":999,"REV_AT_EPOCH":4008,"BSTAR":0,"MEAN_MOTION_DOT":1.36e-6,"MEAN_MOTION_DDOT":0},{"OBJECT_NAME":"GSAT-10","OBJECT_ID":"2012-051B","EPOCH":"2026-03-03T10:56:38.679936","MEAN_MOTION":1.00273302,"ECCENTRICITY":0.0004157,"INCLINATION":0.0759,"RA_OF_ASC_NODE":263.9438,"ARG_OF_PERICENTER":175.5434,"MEAN_ANOMALY":328.8469,"EPHEMERIS_TYPE":0,"CLASSIFICATION_TYPE":"U","NORAD_CAT_ID":38779,"ELEMENT_SET_NO":999,"REV_AT_EPOCH":4903,"BSTAR":0,"MEAN_MOTION_DOT":-1.79e-6,"MEAN_MOTION_DDOT":0},{"OBJECT_NAME":"INTELSAT 23 (IS-23)","OBJECT_ID":"2012-057A","EPOCH":"2026-03-04T01:55:38.590464","MEAN_MOTION":1.00272582,"ECCENTRICITY":0.0001197,"INCLINATION":0.0547,"RA_OF_ASC_NODE":264.5999,"ARG_OF_PERICENTER":73.1512,"MEAN_ANOMALY":159.9952,"EPHEMERIS_TYPE":0,"CLASSIFICATION_TYPE":"U","NORAD_CAT_ID":38867,"ELEMENT_SET_NO":999,"REV_AT_EPOCH":4890,"BSTAR":0,"MEAN_MOTION_DOT":-2.97e-6,"MEAN_MOTION_DDOT":0},{"OBJECT_NAME":"BEIDOU-2 G6","OBJECT_ID":"2012-059A","EPOCH":"2026-03-04T02:27:16.483104","MEAN_MOTION":1.00269514,"ECCENTRICITY":0.0010672,"INCLINATION":4.1554,"RA_OF_ASC_NODE":74.65,"ARG_OF_PERICENTER":304.2337,"MEAN_ANOMALY":263.7683,"EPHEMERIS_TYPE":0,"CLASSIFICATION_TYPE":"U","NORAD_CAT_ID":38953,"ELEMENT_SET_NO":999,"REV_AT_EPOCH":4885,"BSTAR":0,"MEAN_MOTION_DOT":-1.85e-6,"MEAN_MOTION_DDOT":0},{"OBJECT_NAME":"LUCH-5B","OBJECT_ID":"2012-061A","EPOCH":"2026-03-03T21:39:13.674240","MEAN_MOTION":1.00271596,"ECCENTRICITY":0.00043919,"INCLINATION":10.2575,"RA_OF_ASC_NODE":50.9099,"ARG_OF_PERICENTER":223.3648,"MEAN_ANOMALY":195.8772,"EPHEMERIS_TYPE":0,"CLASSIFICATION_TYPE":"U","NORAD_CAT_ID":38977,"ELEMENT_SET_NO":999,"REV_AT_EPOCH":4855,"BSTAR":0,"MEAN_MOTION_DOT":-1.46e-6,"MEAN_MOTION_DDOT":0},{"OBJECT_NAME":"YAMAL 300K","OBJECT_ID":"2012-061B","EPOCH":"2026-03-04T05:07:38.584992","MEAN_MOTION":1.0027219,"ECCENTRICITY":6.63e-5,"INCLINATION":0.0094,"RA_OF_ASC_NODE":177.2875,"ARG_OF_PERICENTER":81.8282,"MEAN_ANOMALY":162.695,"EPHEMERIS_TYPE":0,"CLASSIFICATION_TYPE":"U","NORAD_CAT_ID":38978,"ELEMENT_SET_NO":999,"REV_AT_EPOCH":4857,"BSTAR":0,"MEAN_MOTION_DOT":5.9e-7,"MEAN_MOTION_DDOT":0}]
